2025-108B               
1 64088U 25108B   26166.47629498  .00006693  00000+0  32776-3 0  9993
2 64088  97.4734 242.3007 0008000  29.4151 330.7531 15.18470471 59105
2025-108C               
1 64089U 25108C   26166.52630503  .00003831  00000+0  21894-3 0  9999
2 64089  97.4693 240.6895 0010339  50.8020 309.4128 15.13246817 59012
2025-108D               
1 64090U 25108D   26166.47080779  .00004520  00000+0  22001-3 0  9996
2 64090  97.4694 242.1216 0012279  18.5318 341.6361 15.18819763 59103
2025-108E               
1 64091U 25108E   26166.51129826  .00011124  00000+0  45557-3 0  9998
2 64091  97.4676 243.3807 0011689  13.9437 346.2121 15.24407486 59194
2025-108F               
1 64092U 25108F   26166.49736057  .00016496  00000+0  61289-3 0  9993
2 64092  97.4698 244.1988 0010612  15.9558 344.2013 15.27572013 59245
COSMOS 2588             
1 64095U 25109A   26165.71940446  .00005998  00000+0  21485-3 0  9999
2 64095  72.9706 214.2786 0008680 109.4432 250.7702 15.29020606 59235
STARLINK-34178          
1 64096U 25110A   26166.49375711  .00025589  00000+0  87257-3 0  9992
2 64096  53.1605 292.6918 0001310  77.9252 282.1896 15.30219538 60853
STARLINK-34174          
1 64097U 25110B   26166.49591463  .00021119  00000+0  63434-3 0  9993
2 64097  53.1600 291.2973 0001490  91.8485 268.2688 15.34403514 60876
STARLINK-34146          
1 64098U 25110C   26166.53580782  .00024418  00000+0  73179-3 0  9993
2 64098  53.1616 290.8297 0001268  81.2899 278.8248 15.34386281 60873
STARLINK-34074          
1 64099U 25110D   26166.49903306  .00011314  00000+0  39338-3 0  9990
2 64099  53.1595 292.7302 0001396  87.6724 272.4437 15.30212684 60856
STARLINK-34082          
1 64100U 25110E   26166.49692169  .00009386  00000+0  32859-3 0  9992
2 64100  53.1611 292.7197 0001343 106.9298 253.1850 15.30203968 60853
STARLINK-34072          
1 64101U 25110F   26166.50570845  .00010436  00000+0  34771-3 0  9994
2 64101  53.1596 292.0611 0001398  92.1145 268.0016 15.31687744 60866
STARLINK-34104          
1 64102U 25110G   26166.51064654  .00024385  00000+0  73078-3 0  9993
2 64102  53.1589 291.3828 0001060  72.4005 287.7113 15.34387111 60878
STARLINK-34179          
1 64103U 25110H   26166.50219788  .00022255  00000+0  76087-3 0  9990
2 64103  53.1594 292.7457 0001260 114.3595 245.7538 15.30217555 60853
STARLINK-34176          
1 64104U 25110J   26166.49588441  .00034021  00000+0  11549-2 0  9999
2 64104  53.1597 292.7045 0001015  61.4358 298.6745 15.30216346 60851
STARLINK-33949          
1 64105U 25110K   26166.51069207  .00020644  00000+0  67522-3 0  9996
2 64105  53.1602 292.0916 0001021  89.7229 270.3890 15.31696875 60865
STARLINK-33970          
1 64106U 25110L   26166.51696017  .00024681  00000+0  73960-3 0  9990
2 64106  53.1607 291.4206 0001245  77.8476 282.2666 15.34382717 60870
STARLINK-33912          
1 64107U 25110M   26166.50135700  .00017036  00000+0  55925-3 0  9994
2 64107  53.1613 292.0404 0001352 113.5766 246.5377 15.31713017 60863
STARLINK-34156          
1 64108U 25110N   26166.49635653  .00028451  00000+0  92449-3 0  9990
2 64108  53.1605 291.9999 0001153  70.6440 289.4686 15.31720609 60867
STARLINK-34124          
1 64109U 25110P   26166.49167425  .00022616  00000+0  73746-3 0  9994
2 64109  53.1607 291.9699 0001008  90.8153 269.2964 15.31737610 60866
STARLINK-34145          
1 64110U 25110Q   26166.54212022  .00031627  00000+0  94309-3 0  9996
2 64110  53.1620 290.8645 0001394  96.5890 263.5271 15.34404895 60880
STARLINK-34148          
1 64111U 25110R   26165.63409638  .00018865  00000+0  61770-3 0  9992
2 64111  53.1603 295.8629 0001336  89.1112 271.0042 15.31722941 60736
STARLINK-34136          
1 64112U 25110S   26165.63876488  .00021826  00000+0  71248-3 0  9996
2 64112  53.1600 295.8954 0001169  84.4107 275.7028 15.31724596 60734
STARLINK-33839          
1 64113U 25110T   26166.49668882  .00028955  00000+0  94072-3 0  9999
2 64113  53.1605 291.9982 0001590  77.1368 282.9811 15.31716494 60866
STARLINK-34064          
1 64114U 25110U   26166.51535612  .00020755  00000+0  67865-3 0  9997
2 64114  53.1595 292.1195 0001129 108.1894 251.9230 15.31703576 60869
STARLINK-34067          
1 64115U 25110V   26166.51069277  .00022291  00000+0  68858-3 0  9997
2 64115  53.1622 291.3874 0001155  47.2221 312.8878 15.33480450 60873
STARLINK-34080          
1 64116U 25110W   26166.53827024  .00023135  00000+0  75459-3 0  9995
2 64116  53.1613 291.5511 0001329  91.6666 268.4488 15.31715505 60865
STARLINK-34122          
1 64117U 25110X   26166.54295671  .00027529  00000+0  89544-3 0  9995
2 64117  53.1616 291.5782 0000954  84.3570 275.7540 15.31705334 60864
STARLINK-33964          
1 64118U 25110Y   26166.50600822  .00024037  00000+0  78363-3 0  9998
2 64118  53.1597 292.0578 0001073  40.3542 319.7539 15.31709458 60864
STARLINK-34160          
1 64119U 25110Z   26166.50002315 -.02483357  00000+0 -74784-1 0  9991
2 64119  53.1607 287.5199 0001120  61.7377  55.3459 15.37702441  5786
