OBJECT_NAME,OBJECT_ID,EPOCH,MEAN_MOTION,ECCENTRICITY,INCLINATION,RA_OF_ASC_NODE,ARG_OF_PERICENTER,MEAN_ANOMALY,EPHEMERIS_TYPE,CLASSIFICATION_TYPE,NORAD_CAT_ID,ELEMENT_SET_NO,REV_AT_EPOCH,BSTAR,MEAN_MOTION_DOT,MEAN_MOTION_DDOT
2025-108B,2025-108B,2026-06-15T11:25:51.886272,15.18470471,.0008,97.4734,242.3007,29.4151,330.7531,0,U,64088,999,5910,.32776E-3,.6693E-4,0
2025-108C,2025-108C,2026-06-15T12:37:52.754592,15.13246817,.0010339,97.4693,240.6895,50.8020,309.4128,0,U,64089,999,5901,.21894E-3,.3831E-4,0
2025-108D,2025-108D,2026-06-15T11:17:57.793056,15.18819763,.0012279,97.4694,242.1216,18.5318,341.6361,0,U,64090,999,5910,.22001E-3,.452E-4,0
2025-108E,2025-108E,2026-06-15T12:16:16.169664,15.24407486,.0011689,97.4676,243.3807,13.9437,346.2121,0,U,64091,999,5919,.45557E-3,.11124E-3,0
2025-108F,2025-108F,2026-06-15T11:56:11.953248,15.27572013,.0010612,97.4698,244.1988,15.9558,344.2013,0,U,64092,999,5924,.61289E-3,.16496E-3,0
COSMOS 2588,2025-109A,2026-06-14T17:15:56.545344,15.29020606,.000868,72.9706,214.2786,109.4432,250.7702,0,U,64095,999,5923,.21485E-3,.5998E-4,0
STARLINK-34178,2025-110A,2026-06-15T11:51:00.614304,15.30219538,.000131,53.1605,292.6918,77.9252,282.1896,0,U,64096,999,6085,.87257E-3,.25589E-3,0
STARLINK-34174,2025-110B,2026-06-15T11:54:07.024032,15.34403514,.000149,53.1600,291.2973,91.8485,268.2688,0,U,64097,999,6087,.63434E-3,.21119E-3,0
STARLINK-34146,2025-110C,2026-06-15T12:51:33.795648,15.34386281,.0001268,53.1616,290.8297,81.2899,278.8248,0,U,64098,999,6087,.73179E-3,.24418E-3,0
STARLINK-34074,2025-110D,2026-06-15T11:58:36.456384,15.30212684,.0001396,53.1595,292.7302,87.6724,272.4437,0,U,64099,999,6085,.39338E-3,.11314E-3,0
STARLINK-34082,2025-110E,2026-06-15T11:55:34.034016,15.30203968,.0001343,53.1611,292.7197,106.9298,253.1850,0,U,64100,999,6085,.32859E-3,.9386E-4,0
STARLINK-34072,2025-110F,2026-06-15T12:08:13.210080,15.31687744,.0001398,53.1596,292.0611,92.1145,268.0016,0,U,64101,999,6086,.34771E-3,.10436E-3,0
STARLINK-34104,2025-110G,2026-06-15T12:15:19.861056,15.34387111,.000106,53.1589,291.3828,72.4005,287.7113,0,U,64102,999,6087,.73078E-3,.24385E-3,0
STARLINK-34179,2025-110H,2026-06-15T12:03:09.896832,15.30217555,.000126,53.1594,292.7457,114.3595,245.7538,0,U,64103,999,6085,.76087E-3,.22255E-3,0
STARLINK-34176,2025-110J,2026-06-15T11:54:04.413024,15.30216346,.0001015,53.1597,292.7045,61.4358,298.6745,0,U,64104,999,6085,.11549E-2,.34021E-3,0
STARLINK-33949,2025-110K,2026-06-15T12:15:23.794848,15.31696875,.0001021,53.1602,292.0916,89.7229,270.3890,0,U,64105,999,6086,.67522E-3,.20644E-3,0
STARLINK-33970,2025-110L,2026-06-15T12:24:25.358688,15.34382717,.0001245,53.1607,291.4206,77.8476,282.2666,0,U,64106,999,6087,.7396E-3,.24681E-3,0
STARLINK-33912,2025-110M,2026-06-15T12:01:57.244800,15.31713017,.0001352,53.1613,292.0404,113.5766,246.5377,0,U,64107,999,6086,.55925E-3,.17036E-3,0
STARLINK-34156,2025-110N,2026-06-15T11:54:45.204192,15.31720609,.0001153,53.1605,291.9999,70.6440,289.4686,0,U,64108,999,6086,.92449E-3,.28451E-3,0
STARLINK-34124,2025-110P,2026-06-15T11:48:00.655200,15.31737610,.0001008,53.1607,291.9699,90.8153,269.2964,0,U,64109,999,6086,.73746E-3,.22616E-3,0
STARLINK-34145,2025-110Q,2026-06-15T13:00:39.187008,15.34404895,.0001394,53.1620,290.8645,96.5890,263.5271,0,U,64110,999,6088,.94309E-3,.31627E-3,0
STARLINK-34148,2025-110R,2026-06-14T15:13:05.927232,15.31722941,.0001336,53.1603,295.8629,89.1112,271.0042,0,U,64111,999,6073,.6177E-3,.18865E-3,0
STARLINK-34136,2025-110S,2026-06-14T15:19:49.285632,15.31724596,.0001169,53.1600,295.8954,84.4107,275.7028,0,U,64112,999,6073,.71248E-3,.21826E-3,0
STARLINK-33839,2025-110T,2026-06-15T11:55:13.914048,15.31716494,.000159,53.1605,291.9982,77.1368,282.9811,0,U,64113,999,6086,.94072E-3,.28955E-3,0
STARLINK-34064,2025-110U,2026-06-15T12:22:06.768768,15.31703576,.0001129,53.1595,292.1195,108.1894,251.9230,0,U,64114,999,6086,.67865E-3,.20755E-3,0
STARLINK-34067,2025-110V,2026-06-15T12:15:23.855328,15.33480450,.0001155,53.1622,291.3874,47.2221,312.8878,0,U,64115,999,6087,.68858E-3,.22291E-3,0
STARLINK-34080,2025-110W,2026-06-15T12:55:06.548736,15.31715505,.0001329,53.1613,291.5511,91.6666,268.4488,0,U,64116,999,6086,.75459E-3,.23135E-3,0
STARLINK-34122,2025-110X,2026-06-15T13:01:51.459744,15.31705334,.0000954,53.1616,291.5782,84.3570,275.7540,0,U,64117,999,6086,.89544E-3,.27529E-3,0
STARLINK-33964,2025-110Y,2026-06-15T12:08:39.110208,15.31709458,.0001073,53.1597,292.0578,40.3542,319.7539,0,U,64118,999,6086,.78363E-3,.24037E-3,0
STARLINK-34160,2025-110Z,2026-06-15T12:00:02.000160,15.37702441,.000112,53.1607,287.5199,61.7377,55.3459,0,U,64119,999,578,-.74784E-1,-.2483357E-1,0
